[{"OBJECT_NAME":"STARLINK-35906","OBJECT_ID":"2025-299L","EPOCH":"2026-03-09T07:14:01.951872","MEAN_MOTION":15.28438054,"ECCENTRICITY":0.00030071,"INCLINATION":42.9986,"RA_OF_ASC_NODE":171.4614,"ARG_OF_PERICENTER":286.1637,"MEAN_ANOMALY":73.8884,"EPHEMERIS_TYPE":0,"CLASSIFICATION_TYPE":"U","NORAD_CAT_ID":67112,"ELEMENT_SET_NO":999,"REV_AT_EPOCH":1305,"BSTAR":0.0013806493,"MEAN_MOTION_DOT":0.00038947,"MEAN_MOTION_DDOT":0},{"OBJECT_NAME":"COSMOS 1953","OBJECT_ID":"1988-050A","EPOCH":"2026-03-09T18:09:26.993952","MEAN_MOTION":15.28528086,"ECCENTRICITY":0.00124769,"INCLINATION":82.5105,"RA_OF_ASC_NODE":158.18,"ARG_OF_PERICENTER":122.2454,"MEAN_ANOMALY":237.9996,"EPHEMERIS_TYPE":0,"CLASSIFICATION_TYPE":"U","NORAD_CAT_ID":19210,"ELEMENT_SET_NO":999,"REV_AT_EPOCH":3779,"BSTAR":0.00029210954,"MEAN_MOTION_DOT":8.158e-5,"MEAN_MOTION_DDOT":0}]
